OBJECT C                
1 57582U 23117C   25248.29629825  .00011955  00000+0  44929-3 0  9996
2 57582  97.4397 322.9306 0009101 165.2920 194.8585 15.27282404114897
